[{"OBJECT_NAME":"STARLINK-36484","OBJECT_ID":"2026-005A","EPOCH":"2026-03-09T22:00:01.999584","MEAN_MOTION":15.28559164,"ECCENTRICITY":0.00020575,"INCLINATION":43.0009,"RA_OF_ASC_NODE":236.4215,"ARG_OF_PERICENTER":285.389,"MEAN_ANOMALY":107.322,"EPHEMERIS_TYPE":0,"CLASSIFICATION_TYPE":"U","NORAD_CAT_ID":67404,"ELEMENT_SET_NO":999,"REV_AT_EPOCH":575,"BSTAR":-0.051392169,"MEAN_MOTION_DOT":-0.01328663,"MEAN_MOTION_DDOT":0},{"OBJECT_NAME":"CZ-2C DEB","OBJECT_ID":"2026-009D","EPOCH":"2026-03-09T18:06:55.672992","MEAN_MOTION":15.16841441,"ECCENTRICITY":0.00999045,"INCLINATION":97.6656,"RA_OF_ASC_NODE":143.8643,"ARG_OF_PERICENTER":42.8877,"MEAN_ANOMALY":318.0091,"EPHEMERIS_TYPE":0,"CLASSIFICATION_TYPE":"U","NORAD_CAT_ID":67587,"ELEMENT_SET_NO":999,"REV_AT_EPOCH":810,"BSTAR":0.0023439167,"MEAN_MOTION_DOT":0.00052682,"MEAN_MOTION_DDOT":0}]
